DELTA 1 DEB             
1 10875U 76077DD  21077.83980873  .00000012  00000-0  38264-3 0  9990
2 10875 101.7245  33.1797 0032831 265.4872 122.1657 12.46861629 30264
DELTA 1 DEB             
1 10876U 76077DE  21077.72940396 -.00000105  00000-0 -36914-3 0  9990
2 10876 102.4994 344.9139 0100907 200.6788 181.8860 12.48421580 31904
COSMOS 970 DEB          
1 10877U 77121Y   21077.90635363  .00000030  00000-0  10876-3 0  9991
2 10877  65.7665 270.3788 0137114 146.5727 214.4086 13.74945295164964
COSMOS 970 DEB          
1 10878U 77121Z   21078.40189998 -.00000009  00000-0  83148-4 0  9996
2 10878  65.8420  36.9933 0106973  63.7304  19.3238 13.63887737147790
COSMOS 970 DEB          
1 10879U 77121AA  21077.61602302  .00000102  00000-0  18162-3 0  9994
2 10879  65.8275 171.8328 0124244 355.8726   4.1300 13.74777866366956
COSMOS 970 DEB          
1 10880U 77121AB  21077.86035792  .00000094  00000-0  20646-3 0  9996
2 10880  65.8434  18.8579 0103199  66.4260 327.7979 13.64585710147875
COSMOS 970 DEB          
1 10881U 77121AC  21077.98884217 -.00000007  00000-0  78777-4 0  9998
2 10881  65.8437  84.4294 0136335 350.6948   9.1587 13.68321943155326
COSMOS 970 DEB          
1 10882U 77121AD  21077.48179495  .00000084  00000-0  16001-3 0  9994
2 10882  65.8234 100.3708 0141019 340.4223  19.1455 13.75369013162824
COSMOS 970 DEB          
1 10883U 77121AE  21077.95000722  .00000101  00000-0  18265-3 0  9997
2 10883  65.8410 279.6434 0129304 319.2602 199.4958 13.73685162158891
COSMOS 970 DEB          
1 10884U 77121AF  21077.82138485 -.00000013  00000-0  56437-4 0  9999
2 10884  66.3904 341.7397 0200245 351.5746   8.1975 13.76821409168106
COSMOS 970 DEB          
1 10885U 77121AG  21077.42977712  .00000182  00000-0  30697-3 0  9995
2 10885  65.7918  72.1656 0073302 236.1112 277.0756 13.67015990145519
COSMOS 970 DEB          
1 10886U 77121AH  21077.83991769  .00000217  00000-0  31321-3 0  9993
2 10886  65.8473  15.7679 0115217 343.0493  48.7867 13.71797142156886
COSMOS 970 DEB          
1 10887U 77121AJ  21077.86874244  .00000084  00000-0  14118-3 0  9992
2 10887  65.7426 242.3223 0161535 188.4679 171.3656 13.81773080173231
COSMOS 970 DEB          
1 10888U 77121AK  21077.33024140  .00000027  00000-0  13261-3 0  9992
2 10888  65.5164  39.9828 0123534 348.4769 163.1234 13.61406578144192
COSMOS 970 DEB          
1 10889U 77121AL  21077.65265395  .00000101  00000-0  17926-3 0  9992
2 10889  65.8260 157.8490 0136031 348.2697  11.5204 13.74542999161354
COSMOS 970 DEB          
1 10890U 77121AM  21077.93931269  .00000025  00000-0  11167-3 0  9991
2 10890  65.7759 270.0889 0135516 187.8521 321.2021 13.69956339156902
OPS 5112 (NAVSTAR 2)    
1 10893U 78047A   21077.08377684 -.00000066  00000-0  00000+0 0  9999
2 10893  63.9863 334.3025 0496307  47.5758 177.0006  2.01627407315068
ATLAS F R/B             
1 10894U 78047B   21077.31673372 -.00001406  00000-0 -11889-1 0  9998
2 10894  64.1158 128.9401 5051741 217.7392 101.2600  5.03091659780157
COSMOS 1011             
1 10917U 78053A   21078.10430534  .00000036  00000-0  21830-4 0  9996
2 10917  82.9158  63.5627 0035243 266.7002 163.6983 13.75301432148819
SL-8 R/B                
1 10918U 78053B   21077.88038046  .00000006  00000-0 -99804-5 0  9998
2 10918  82.9177  24.5104 0030925 129.5371 284.6830 13.77312362151269
MOLNIYA 1-40            
1 10925U 78055A   21077.17765283  .00000861  00000-0  00000-0 0  9993
2 10925  62.6542 111.5902 7127405 278.9964  13.1219  2.00594848313525
COSMOS 1013             
1 10930U 78056A   21077.81379816 -.00000026  00000-0 -78277-4 0  9994
2 10930  74.0238  99.7821 0048322 337.7422 131.9155 12.37785349933023
COSMOS 1014             
1 10931U 78056B   21077.82810733 -.00000014  00000-0  13815-4 0  9997
2 10931  74.0296 357.7274 0033707 221.6458 193.4769 12.40458208937188
COSMOS 1015             
1 10932U 78056C   21078.53420793 -.00000020  00000-0 -30213-4 0  9999
2 10932  74.0232 267.9129 0026879  95.9626 324.1423 12.42780883941118
COSMOS 1016             
1 10933U 78056D   21077.84758215 -.00000002  00000-0  96010-4 0  9992
2 10933  74.0280 173.6248 0017552 319.8022 176.4375 12.45266920944664
COSMOS 1017             
1 10934U 78056E   21077.26156824 -.00000027  00000-0 -77488-4 0  9993
2 10934  74.0240  85.1834 0021774 188.7005 182.5932 12.47574517948436
COSMOS 1018             
1 10935U 78056F   21078.17993050 -.00000000  00000-0  10134-3 0  9999
2 10935  74.0309 355.3277 0028613  61.9630  89.5966 12.49870615952125
COSMOS 1019             
1 10936U 78056G   21077.94553338 -.00000021  00000-0 -32179-4 0  9993
2 10936  74.0234 268.0699 0041198 315.2141 116.0894 12.52120910955361
COSMOS 1020             
1 10937U 78056H   21077.70474977  .00000002  00000-0  11402-3 0  9991
2 10937  74.0280 174.9954 0049469 196.3286 163.6176 12.54517279959072
SL-8 R/B                
1 10938U 78056J   21077.80019553 -.00000010  00000-0  46828-4 0  9999
2 10938  74.0253 346.3468 0132996 334.3370  80.8105 12.21513919907632
TITAN 3C TRANSTAGE R/B  
1 10942U 78058B   21077.56770038 -.00000016  00000-0  00000+0 0  9994
2 10942   8.5063  25.0942 1488561  89.5652 287.3877  0.99630169  7664
SL-6 R/B(2)             
1 10949U 78055E   21077.49127347 -.00000876  00000-0  00000+0 0  9993
2 10949  62.6573 138.2426 7172014 275.7155  13.7661  1.97086390202410
GOES 3                  
1 10953U 78062A   21077.27120017 -.00000245  00000-0  00000+0 0  9999
2 10953  11.1295 316.2267 0003578  55.3353 242.0505  0.99365165109544
DELTA 1 R/B(1)          
1 10954U 78062B   21078.47044686  .00000276  00000-0  48809-4 0  9997
2 10954  28.4271 192.6067 0697879 170.1779 191.3218 13.50996126102239
COSMOS 1023             
1 10961U 78063A   21078.06128320  .00000028  00000-0  18402-4 0  9990
2 10961  74.0788   2.7970 0017479 287.0545  72.8693 14.36537851237973
SL-8 R/B                
1 10962U 78063B   21078.54217972  .00000009  00000-0  10876-4 0  9992
2 10962  74.0804 207.0395 0024195 117.5722 242.7896 14.41234507243429
SEASAT 1                
1 10967U 78064A   21078.03764042 -.00000063  00000-0  21588-4 0  9990
2 10967 108.0036 284.7526 0002623 283.5353  76.5499 14.43865929244459
COSMOS 1024             
1 10970U 78066A   21076.99783570  .00000496  00000-0  00000-0 0  9997
2 10970  62.7072 239.3977 6926437  30.5966 355.7355  2.00717064312959
SL-14 R/B               
1 10974U 78067B   21077.79675444  .00000092  00000-0  73755-5 0  9995
2 10974  82.4816 310.9855 0018733 118.6717 241.6387 14.87388229290178
COMSTAR 3               
1 10975U 78068A   21078.20967897 -.00000206  00000-0  00000+0 0  9995
2 10975  12.9343 330.2643 0017959 282.4361 352.0345  0.99200931117008
ATLAS CENTAUR R/B       
1 10976U 78068B   21078.15979611 -.00000069  00000-0  50764-4 0  9991
2 10976  21.7717  87.1176 7171944  22.5371  64.6580  2.22312835346755
GEOS 2                  
1 10981U 78071A   21078.15205187  .00000084  00000-0  00000+0 0  9990
2 10981  10.1882 307.0314 0004143   9.1541 148.9450  0.99375349154933
RADUGA 4                
1 10987U 78073A   21077.78518208 -.00000341  00000-0  00000-0 0  9995
2 10987   9.5106 302.2768 0009928 357.7821 264.5455  1.00312442100387
THORAD DELTA 1 DEB      
1 10990U 74089EK  21077.73466954 -.00000045  00000-0 -10258-4 0  9999
2 10990 101.2086 131.8278 0073793 323.7350 160.1171 12.65008104138973
COSMOS 1027             
1 10991U 78074A   21078.33504302  .00000044  00000-0  29924-4 0  9992
2 10991  82.9409   1.4699 0026586 348.5290 128.3078 13.76471029141736
SL-8 R/B                
1 10992U 78074B   21078.17107255  .00000072  00000-0  56333-4 0  9996
2 10992  82.9357 332.7680 0018012 244.0036 270.2073 13.77943949143664
SL-6 R/B(2)             
1 10998U 78066D   21077.10314959  .00000774  00000-0  00000+0 0  9990
2 10998  62.7262 229.3715 7043964  29.4485 356.1105  1.99964644311972
M-3H R/B                
1 11028U 78087B   21078.05054921  .00018890  00000-0  83036-3 0  9995
2 11028  31.2392 266.7258 4363062 105.2104 305.8909  6.81269472588951
COSMOS 1034             
1 11042U 78091A   21078.54748955 -.00000011  00000-0  31661-4 0  9992
2 11042  74.0331 239.8061 0037064  55.4969  14.4028 12.53161012942494
COSMOS 1035             
1 11044U 78091B   21077.63245586 -.00000003  00000-0  84010-4 0  9992
2 11044  74.0351 144.0324 0049799 294.6324 218.7315 12.55665702946036
COSMOS 1036             
1 11045U 78091C   21078.20189137 -.00000011  00000-0  32893-4 0  9997
2 11045  74.0378 331.0487 0024533 161.5486 359.2708 12.50813054938818
COSMOS 1037             
1 11046U 78091D   21077.66416733 -.00000025  00000-0 -58835-4 0  9992
2 11046  74.0343  65.3825 0013604 284.3764 194.2585 12.48373431934727
COSMOS 1038             
1 11047U 78091E   21077.66452731 -.00000002  00000-0  95547-4 0  9996
2 11047  74.0362 160.2570 0005434 119.5124 312.6913 12.45897782522172
COSMOS 1039             
1 11048U 78091F   21078.12423465 -.00000031  00000-0 -12107-3 0  9994
2 11048  74.0325  99.4761 0045784 143.4061 273.8009 12.37996248440615
COSMOS 1040             
1 11049U 78091G   21078.16520045 -.00000004  00000-0  85097-4 0  9999
2 11049  74.0393 351.6097 0029990  23.5756 129.3945 12.40846180923383
COSMOS 1041             
1 11050U 78091H   21077.94887946 -.00000023  00000-0 -54556-4 0  9990
2 11050  74.0321 259.1651 0020161 256.8881 175.8190 12.43290758926901
SL-8 R/B                
1 11051U 78091J   21077.35357760  .00000041  00000-0  51140-3 0  9995
2 11051  74.0441  40.7850 0136512 164.7215 309.9318 12.20490363891593
OPS 5113 (NAVSTAR 3)    
1 11054U 78093A   21077.34999898 -.00000085  00000-0  00000+0 0  9997
2 11054  64.0235 356.4925 0092337 231.2846 326.2542  1.93504051303577
MOLNIYA 3-10            
1 11057U 78095A   21077.55439832  .00000012  00000-0 -49325-4 0  9990
2 11057  62.8337 210.1867 5876445 304.0891  13.2712  4.09817024365054
TIROS N                 
1 11060U 78096A   21078.12068603  .00000024  00000-0  32472-4 0  9990
2 11060  98.6996 137.3043 0010759  19.3065 340.8516 14.18300471407304
